LEMUR-1                 
1 40044U 14033AL  23048.76226658  .00004046  00000+0  58264-3 0  9993
2 40044  97.6592 229.2114 0058725  84.2778 276.5124 14.75672260465648
LEMUR-2-XIAOQING        
1 41871U 16062C   23049.49258113  .00151792  00000+0  16343-2 0  9990
2 41871  51.6256 221.3376 0003461 249.2224 110.8399 15.62690565348002
LEMUR-2-SOKOLSKY        
1 41872U 16062D   23049.21672858  .00147490  00000+0  15581-2 0  9990
2 41872  51.6636 233.7179 0006177 253.1482 106.8836 15.63180394347926
LEMUR-2-ANUBHAVTHAKUR   
1 41873U 16062E   23049.00089574  .00020071  00000+0  62750-3 0  9991
2 41873  51.6791 302.0236 0007204  83.7142 276.4660 15.33112933346924
LEMUR-2-WINGO           
1 41874U 16062F   23049.22866209  .00128218  00000+0  15781-2 0  9997
2 41874  51.6394 236.2994 0003181 330.5366  29.5447 15.59304568347795
LEMUR-2-JOBANPUTRA      
1 41991U 17008AV  23049.41760570  .00058669  00000+0  12039-2 0  9998
2 41991  97.2265 112.3531 0005223  76.0491 284.1339 15.45824213333961
LEMUR-2-SPIRE-MINIONS   
1 41992U 17008AW  23048.19205951  .00098298  00000+0  14412-2 0  9999
2 41992  97.2339 117.5015 0002132  57.9652 302.1809 15.55204659334131
LEMUR-2-SATCHMO         
1 41993U 17008AX  23048.88980842  .00043073  00000+0  10074-2 0  9996
2 41993  97.2234 111.7588 0005883  81.4428 278.7486 15.42008217333873
LEMUR-2-SMITA-SHARAD    
1 41994U 17008AY  23049.43815150  .00072748  00000+0  11322-2 0  9996
2 41994  97.2355 118.4325 0003608  63.4108 296.7515 15.53653868334312
LEMUR-2-RDEATON         
1 41995U 17008AZ  23049.44699248  .00033704  00000+0  82068-3 0  9991
2 41995  97.2311 112.4983 0006609  89.3180 270.8824 15.40838130334634
LEMUR-2-TACHIKOMA       
1 41996U 17008BA  23049.46744556  .00065001  00000+0  10821-2 0  9999
2 41996  97.2413 118.5292 0003589  76.0379 284.1272 15.51807202334177
LEMUR-2-NOGUECORREIG    
1 41997U 17008BB  23048.97248973  .00098957  00000+0  14351-2 0  9995
2 41997  97.2327 118.8591 0003387  70.7539 289.4082 15.55497883334263
LEMUR-2-MIA-GRACE       
1 41998U 17008BC  23048.94313055  .00037796  00000+0  92518-3 0  9993
2 41998  97.2288 111.4905 0006508  93.0419 267.1573 15.40655602333773
LEMUR-2-ANGELA          
1 42752U 17019B   23049.41535963  .00148797  00000+0  13015-2 0  9999
2 42752  51.6238 101.9979 0003526 354.2867   5.8089 15.67914758319336
LEMUR-2-ROBMOORE        
1 42754U 17019D   23048.88763205  .00110243  00000+0  12729-2 0  9999
2 42754  51.6271 109.6810 0003286 326.5621  33.5164 15.61052245319168
LEMUR-2-SHAINAJOHL      
1 42771U 17036G   23049.36088949  .00046368  00000+0  10670-2 0  9995
2 42771  97.1697  89.7560 0009935 145.6996 214.4895 15.42446062314705
LEMUR-2-XUENITERENCE    
1 42772U 17036H   23049.06073716  .00073049  00000+0  13896-2 0  9998
2 42772  97.1521  90.0964 0008661 139.7728 220.4165 15.47942258314752
LEMUR-2-LUCYBRYCE       
1 42773U 17036J   23048.67222159  .00042277  00000+0  11002-2 0  9998
2 42773  97.1745  88.5966 0010011 150.7613 209.4195 15.38729783314513
LEMUR-2-KUNGFOO         
1 42774U 17036K   23048.84731728  .00054000  00000+0  12189-2 0  9999
2 42774  97.1689  89.7976 0009446 144.5502 215.6376 15.42991586314655
LEMUR-2-LYNSEY-SYMO     
1 42779U 17036Q   23049.09108032  .00068237  00000+0  13061-2 0  9995
2 42779  97.1725  95.7260 0008722 145.6223 214.5593 15.47783308315018
LEMUR-2-LISASAURUS      
1 42780U 17036R   23049.38916593  .00056430  00000+0  12084-2 0  9994
2 42780  97.1685  91.6816 0008098 149.0755 211.0973 15.44558621314794
LEMUR-2-SAM-AMELIA      
1 42781U 17036S   23048.92130785  .00020807  00000+0  60721-3 0  9996
2 42781  97.1775  90.7541 0009815 154.8887 205.2836 15.35311820314654
LEMUR-2-MCPEAKE         
1 42782U 17036T   23049.04610908  .00045152  00000+0  10281-2 0  9996
2 42782  97.1703  93.0222 0008367 145.3613 214.8182 15.42783583314850
LEMUR-2-GREENBERG       
1 42837U 17042N   23048.81266972  .00007805  00000+0  70837-3 0  9993
2 42837  97.4034 257.8132 0010650 254.6330 105.3715 14.95507349304912
LEMUR-2-ANDIS           
1 42838U 17042P   23048.80500924  .00008666  00000+0  78529-3 0  9993
2 42838  97.4021 257.7165 0010607 253.5920 106.4136 14.95538447304911
LEMUR-2-MONSON          
1 42839U 17042Q   23049.33175016  .00007161  00000+0  65436-3 0  9995
2 42839  97.4033 257.9366 0010335 251.6277 108.3821 14.95271820304968
LEMUR-2-FURIAUS         
1 42840U 17042R   23048.82800939  .00009818  00000+0  89882-3 0  9991
2 42840  97.4053 257.8096 0011249 255.9645 104.0326 14.95093577304887
LEMUR-2-PETERG          
1 42841U 17042S   23048.34236043  .00006576  00000+0  59993-3 0  9996
2 42841  97.4086 258.6068 0010344 252.4127 107.5965 14.95363022304886
LEMUR-2-DEMBITZ         
1 42842U 17042T   23048.53765543  .00009050  00000+0  81744-3 0  9999
2 42842  97.4063 258.6955 0010199 250.9498 109.0619 14.95655789304921
LEMUR-2-ZACHARY         
1 42845U 17042W   23049.47681157  .00008057  00000+0  70642-3 0  9995
2 42845  97.3944 258.7144 0010225 248.4325 111.5808 14.96855239305127
LEMUR-2-MCCAFFERTY      
1 43123U 18004N   23049.01704823  .00148076  00000+0  18249-2 0  9990
2 43123  97.3478 136.1765 0004329 219.3462 140.7481 15.59695948284434
LEMUR-2-PETERWEBSTER    
1 43124U 18004P   23049.20929339  .00090716  00000+0  13577-2 0  9999
2 43124  97.3529 135.6491 0005007 190.7942 169.3205 15.54657313284420
LEMUR-2-BROWNCOW        
1 43125U 18004Q   23049.49595075  .00152042  00000+0  16375-2 0  9997
2 43125  97.3573 138.9648 0004245 216.4848 143.6122 15.63197668284632
LEMUR-2-DAVEWILSON      
1 43126U 18004R   23049.48347106  .00129888  00000+0  12868-2 0  9992
2 43126  97.3583 139.0080 0004671 205.2692 154.8340 15.65394643284643
LEMUR-2-MARSHALL        
1 43165U 18010C   23048.86218200  .00065693  00000+0  15296-2 0  9996
2 43165  82.9087 191.3220 0018965 175.4411 184.7014 15.41830909282091
LEMUR-2-TALLHAMN-ATC    
1 43167U 18010E   23048.83615037  .00032901  00000+0  98889-3 0  9990
2 43167  82.9145 199.0597 0017122 200.3702 159.6861 15.34103183281612
LEMUR-2-JIN-LUEN        
1 43182U 18014C   23049.46270743  .00007980  00000+0  61705-3 0  9998
2 43182  97.6328 313.6975 0015246 197.8352 162.2339 15.01668611275771
LEMUR-2-URAMCHANSOL     
1 43183U 18014D   23048.98272971  .00009799  00000+0  74755-3 0  9999
2 43183  97.6322 313.5454 0016078 183.2292 176.8831 15.02111330275717
LEMUR-2-KADI            
1 43184U 18014E   23048.50946010  .00013800  00000+0  10726-2 0  9995
2 43184  97.6215 312.7764 0015995 167.5014 192.6610 15.01313704275627
LEMUR-2-THENICKMOLO     
1 43185U 18014F   23049.30269873  .00008619  00000+0  66703-3 0  9999
2 43185  97.6177 313.8941 0009772 165.3480 194.8030 15.01666518275751
LEMUR-2-ZUPANSKI        
1 43695U 18088F   23048.53457791  .00056112  00000+0  13902-2 0  9991
2 43695  85.0274 148.6690 0010215 299.1543  60.8686 15.40128947237446
LEMUR-2-CHANUSIAK       
1 43697U 18088H   23049.52931272  .00065458  00000+0  14491-2 0  9991
2 43697  85.0326 147.7854 0011661 284.7903  75.2059 15.43469256237756
LEMUR-2-DULY            
1 43745U 18096AC  23049.49710175  .02830516  23929-5  16378-2 0  9991
2 43745  97.3357 147.3524 0015898 289.5661  70.3910 16.18580809236550
LEMUR-2-CHRISTINAHOLT   
1 43882U 18111G   23049.31108946  .00009048  00000+0  68413-3 0  9992
2 43882  97.6595 318.4703 0010220 173.2621 186.8743 15.02536479224637
LEMUR-2-TINYKEV         
1 43883U 18111H   23048.34201058  .00019956  00000+0  14702-2 0  9993
2 43883  97.6404 317.5593 0010950 167.6700 315.9379 15.03316951224518
LEMUR-2-REMY-COLTON     
1 43884U 18111J   23048.87861034  .00013002  00000+0  96996-3 0  9990
2 43884  97.6557 318.7740 0003157 123.1794 236.9734 15.02984731224610
LEMUR-2-GUSTAVO         
1 43885U 18111K   23048.97049176  .00012664  00000+0  95332-3 0  9993
2 43885  97.6503 318.4086 0016574 180.5603 179.5606 15.02543272224593
LEMUR-2-ZO              
1 43886U 18111L   23048.48834598  .00015301  00000+0  11515-2 0  9991
2 43886  97.6440 318.1278 0014373 200.3520 159.7133 15.02537782226538
LEMUR-2-NATALIEMURRAY   
1 43887U 18111M   23049.48963852  .00011509  00000+0  86226-3 0  9997
2 43887  97.6556 319.5945 0012870 143.7026 216.5074 15.02792347226709
LEMUR-2-SARAHBETTYBOO   
1 43888U 18111N   23049.49680189  .00012328  00000+0  91657-3 0  9992
2 43888  97.6866 320.3287 0012433 230.1654 129.8478 15.03070953226714
LEMUR-2-DAISY-HARPER    
1 43889U 18111P   23048.49380107  .00016343  00000+0  12142-2 0  9991
2 43889  97.6787 319.4287 0010550 230.8021 129.2268 15.03047758226560
LEMUR-2-JOHANLORAN      
1 44084U 19018G   23049.15746207  .00500166  00000+0  24979-2 0  9999
2 44084  97.2774 118.1345 0006519 274.7001  85.3523 15.80513947216775
LEMUR-2-BEAUDACIOUS     
1 44085U 19018H   23048.61507977  .00076683  00000+0  14468-2 0  9993
2 44085  97.2771 112.9902 0007254 309.3714  50.6893 15.48176410216406
LEMUR-2-ELHAM           
1 44086U 19018J   23048.90547278  .00110833  00000+0  16013-2 0  9998
2 44086  97.2876 116.0161 0008554 294.3833  65.6529 15.55523675216593
LEMUR-2-VICTOR-ANDREW   
1 44087U 19018K   23049.43409956  .00343245  00000+0  18174-2 0  9993
2 44087  97.2826 119.2692 0006785 270.4002  89.6488 15.79619784216863
LEMUR-2-LILLYJO         
1 44396U 19038L   23048.86196851  .00029900  00000+0  11020-2 0  9993
2 44396  97.6446  27.0034 0017720   4.5519 355.5877 15.27617624200419
LEMUR-2-WANLI           
1 44402U 19038S   23049.16123210  .00031648  00000+0  11501-2 0  9990
2 44402  97.6433  26.9327 0016808   5.2728 354.8685 15.28084393200435
LEMUR-2-MORAG           
1 44403U 19038T   23048.84669772  .00025559  00000+0  99602-3 0  9996
2 44403  97.6508  27.5317 0018043   3.4164 356.7193 15.25797366200402
LEMUR-2-DUSTINTHEWIND   
1 44405U 19038V   23048.90660119  .00028985  00000+0  10968-2 0  9994
2 44405  97.6472  26.4046 0018623   3.6300 356.5069 15.26737455200380
LEMUR-2-ALEX-MADDY      
1 44407U 19038X   23048.89458437  .00023632  00000+0  10123-2 0  9999
2 44407  97.6562  25.7962 0019252  11.9787 348.1902 15.22610470200264
